{"type": "FeatureCollection", "features": [ {"type": "Feature", "properties": {"norad_id": 38755, "name": "SPOT 6", "group": "resource", "lat": -5.804709430871627, "lon": 53.90542837199345, "alt_km": 701.5560798422121, "timestamp": "2025-12-14T07:33:19.134826+00:00", "meta": {"OBJECT_NAME": "SPOT 6", "OBJECT_ID": "2012-047A", "EPOCH": "2025-12-13T16:45:52.864992", "MEAN_MOTION": 14.58605619, "ECCENTRICITY": 0.00011565, "INCLINATION": 98.1569, "RA_OF_ASC_NODE": 52.4651, "ARG_OF_PERICENTER": 98.1805, "MEAN_ANOMALY": 261.9526, "EPHEMERIS_TYPE": 0, "CLASSIFICATION_TYPE": "U", "NORAD_CAT_ID": 38755, "ELEMENT_SET_NO": 999, "REV_AT_EPOCH": 70601, "BSTAR": 0.00018419815, "MEAN_MOTION_DOT": 8.12e-06, "MEAN_MOTION_DDOT": 0}, "tle": {"line1": "1 38755U 12047A   25347.69852853  .00000812  00000+0  18420-3 0  9997", "line2": "2 38755  98.1569  52.4651 0001156  98.1805 261.9526 14.58605619706015"}}, "geometry": {"type": "Point", "coordinates": [53.90542837199345, -5.804709430871627]}}, {"type": "Feature", "properties": {"norad_id": 39019, "name": "PLEIADES 1B", "group": "resource", "lat": -70.81433783185182, "lon": -143.4734861022697, "alt_km": 705.9775646801172, "timestamp": "2025-12-14T07:33:19.134836+00:00", "meta": {"OBJECT_NAME": "PLEIADES 1B", "OBJECT_ID": "2012-068A", "EPOCH": "2025-12-13T15:34:58.685376", "MEAN_MOTION": 14.58555166, "ECCENTRICITY": 0.00012261, "INCLINATION": 98.179, "RA_OF_ASC_NODE": 60.2862, "ARG_OF_PERICENTER": 83.6895, "MEAN_ANOMALY": 276.4444, "EPHEMERIS_TYPE": 0, "CLASSIFICATION_TYPE": "U", "NORAD_CAT_ID": 39019, "ELEMENT_SET_NO": 999, "REV_AT_EPOCH": 69380, "BSTAR": 0.00018654213, "MEAN_MOTION_DOT": 8.22e-06, "MEAN_MOTION_DDOT": 0}, "tle": {"line1": "1 39019U 12068A   25347.64929034  .00000822  00000+0  18654-3 0  9995", "line2": "2 39019  98.1790  60.2862 0001226  83.6895 276.4444 14.58555166693805"}}, "geometry": {"type": "Point", "coordinates": [-143.4734861022697, -70.81433783185182]}}, {"type": "Feature", "properties": {"norad_id": 39030, "name": "GOKTURK 2", "group": "resource", "lat": -22.516592338300768, "lon": 6.679832702790344, "alt_km": 649.7425700088706, "timestamp": "2025-12-14T07:33:19.134847+00:00", "meta": {"OBJECT_NAME": "GOKTURK 2", "OBJECT_ID": "2012-073A", "EPOCH": "2025-12-13T15:59:23.047008", "MEAN_MOTION": 14.75294067, "ECCENTRICITY": 0.00010038, "INCLINATION": 97.6895, "RA_OF_ASC_NODE": 189.2742, "ARG_OF_PERICENTER": 106.3773, "MEAN_ANOMALY": 253.7548, "EPHEMERIS_TYPE": 0, "CLASSIFICATION_TYPE": "U", "NORAD_CAT_ID": 39030, "ELEMENT_SET_NO": 999, "REV_AT_EPOCH": 69715, "BSTAR": 0.00018717283, "MEAN_MOTION_DOT": 1.22e-05, "MEAN_MOTION_DDOT": 0}, "tle": {"line1": "1 39030U 12073A   25347.66623897  .00001220  00000+0  18717-3 0  9997", "line2": "2 39030  97.6895 189.2742 0001003 106.3773 253.7548 14.75294067697152"}}, "geometry": {"type": "Point", "coordinates": [6.679832702790344, -22.516592338300768]}}, {"type": "Feature", "properties": {"norad_id": 39084, "name": "LANDSAT 8", "group": "resource", "lat": 53.547944127250524, "lon": 45.09765213827458, "alt_km": 696.806565312424, "timestamp": "2025-12-14T07:33:19.134858+00:00", "meta": {"OBJECT_NAME": "LANDSAT 8", "OBJECT_ID": "2013-008A", "EPOCH": "2025-12-13T16:28:26.981760", "MEAN_MOTION": 14.57115248, "ECCENTRICITY": 0.00010945, "INCLINATION": 98.2072, "RA_OF_ASC_NODE": 55.7459, "ARG_OF_PERICENTER": 89.4479, "MEAN_ANOMALY": 270.6845, "EPHEMERIS_TYPE": 0, "CLASSIFICATION_TYPE": "U", "NORAD_CAT_ID": 39084, "ELEMENT_SET_NO": 999, "REV_AT_EPOCH": 67088, "BSTAR": 0.00014633465, "MEAN_MOTION_DOT": 6.14e-06, "MEAN_MOTION_DDOT": 0}, "tle": {"line1": "1 39084U 13008A   25347.68642340  .00000614  00000+0  14633-3 0  9990", "line2": "2 39084  98.2072  55.7459 0001094  89.4479 270.6845 14.57115248670883"}}, "geometry": {"type": "Point", "coordinates": [45.09765213827458, 53.547944127250524]}}, {"type": "Feature", "properties": {"norad_id": 39086, "name": "SARAL", "group": "resource", "lat": -78.48753730453218, "lon": -55.391391376128325, "alt_km": 791.755667665092, "timestamp": "2025-12-14T07:33:19.134869+00:00", "meta": {"OBJECT_NAME": "SARAL", "OBJECT_ID": "2013-009A", "EPOCH": "2025-12-13T15:15:02.333952", "MEAN_MOTION": 14.32757389, "ECCENTRICITY": 0.00028851, "INCLINATION": 98.5503, "RA_OF_ASC_NODE": 171.5542, "ARG_OF_PERICENTER": 107.0501, "MEAN_ANOMALY": 253.0999, "EPHEMERIS_TYPE": 0, "CLASSIFICATION_TYPE": "U", "NORAD_CAT_ID": 39086, "ELEMENT_SET_NO": 999, "REV_AT_EPOCH": 66903, "BSTAR": 8.4371689e-05, "MEAN_MOTION_DOT": 1.86e-06, "MEAN_MOTION_DDOT": 0}, "tle": {"line1": "1 39086U 13009A   25347.63544368  .00000186  00000+0  84372-4 0  9991", "line2": "2 39086  98.5503 171.5542 0002885 107.0501 253.0999 14.32757389669030"}}, "geometry": {"type": "Point", "coordinates": [-55.391391376128325, -78.48753730453218]}}, {"type": "Feature", "properties": {"norad_id": 39150, "name": "GAOFEN-1", "group": "resource", "lat": -70.57956913812912, "lon": 82.24181729060781, "alt_km": 658.634800492935, "timestamp": "2025-12-14T07:33:19.134879+00:00", "meta": {"OBJECT_NAME": "GAOFEN-1", "OBJECT_ID": "2013-018A", "EPOCH": "2025-12-13T15:37:08.266368", "MEAN_MOTION": 14.76539894, "ECCENTRICITY": 0.00182737, "INCLINATION": 97.9322, "RA_OF_ASC_NODE": 58.2939, "ARG_OF_PERICENTER": 140.097, "MEAN_ANOMALY": 220.1587, "EPHEMERIS_TYPE": 0, "CLASSIFICATION_TYPE": "U", "NORAD_CAT_ID": 39150, "ELEMENT_SET_NO": 999, "REV_AT_EPOCH": 68086, "BSTAR": 0.00029279885, "MEAN_MOTION_DOT": 1.996e-05, "MEAN_MOTION_DDOT": 0}, "tle": {"line1": "1 39150U 13018A   25347.65079012  .00001996  00000+0  29280-3 0  9990", "line2": "2 39150  97.9322  58.2939 0018273 140.0970 220.1587 14.76539894680869"}}, "geometry": {"type": "Point", "coordinates": [82.24181729060781, -70.57956913812912]}}, {"type": "Feature", "properties": {"norad_id": 39160, "name": "VNREDSAT 1", "group": "resource", "lat": -73.58046814538994, "lon": 71.79193487001264, "alt_km": 685.4333562361007, "timestamp": "2025-12-14T07:33:19.134890+00:00", "meta": {"OBJECT_NAME": "VNREDSAT 1", "OBJECT_ID": "2013-021B", "EPOCH": "2025-12-13T15:30:25.246656", "MEAN_MOTION": 14.64926021, "ECCENTRICITY": 0.00013014, "INCLINATION": 97.9372, "RA_OF_ASC_NODE": 42.889, "ARG_OF_PERICENTER": 78.9986, "MEAN_ANOMALY": 281.1364, "EPHEMERIS_TYPE": 0, "CLASSIFICATION_TYPE": "U", "NORAD_CAT_ID": 39160, "ELEMENT_SET_NO": 999, "REV_AT_EPOCH": 67312, "BSTAR": 0.00024898623, "MEAN_MOTION_DOT": 1.286e-05, "MEAN_MOTION_DDOT": 0}, "tle": {"line1": "1 39160U 13021B   25347.64612554  .00001286  00000+0  24899-3 0  9991", "line2": "2 39160  97.9372  42.8890 0001301  78.9986 281.1364 14.64926021673120"}}, "geometry": {"type": "Point", "coordinates": [71.79193487001264, -73.58046814538994]}}, {"type": "Feature", "properties": {"norad_id": 39227, "name": "ARIRANG-5 (KOMPSAT-5)", "group": "resource", "lat": -46.48630680098124, "lon": -15.504381293389367, "alt_km": 562.263651715487, "timestamp": "2025-12-14T07:33:19.134900+00:00", "meta": {"OBJECT_NAME": "ARIRANG-5 (KOMPSAT-5)", "OBJECT_ID": "2013-042A", "EPOCH": "2025-12-13T16:11:02.392800", "MEAN_MOTION": 15.04511749, "ECCENTRICITY": 0.00035406, "INCLINATION": 97.6144, "RA_OF_ASC_NODE": 171.9647, "ARG_OF_PERICENTER": 52.969, "MEAN_ANOMALY": 307.186, "EPHEMERIS_TYPE": 0, "CLASSIFICATION_TYPE": "U", "NORAD_CAT_ID": 39227, "ELEMENT_SET_NO": 999, "REV_AT_EPOCH": 67596, "BSTAR": 0.00023191246, "MEAN_MOTION_DOT": 3.187e-05, "MEAN_MOTION_DDOT": 0}, "tle": {"line1": "1 39227U 13042A   25347.67433325  .00003187  00000+0  23191-3 0  9994", "line2": "2 39227  97.6144 171.9647 0003540  52.9690 307.1860 15.04511749675969"}}, "geometry": {"type": "Point", "coordinates": [-15.504381293389367, -46.48630680098124]}}, {"type": "Feature", "properties": {"norad_id": 39418, "name": "SKYSAT-A", "group": "resource", "lat": -77.28633305278548, "lon": 73.71189167276276, "alt_km": 529.3224573656653, "timestamp": "2025-12-14T07:33:19.134911+00:00", "meta": {"OBJECT_NAME": "SKYSAT-A", "OBJECT_ID": "2013-066C", "EPOCH": "2025-12-13T16:01:12.297216", "MEAN_MOTION": 15.1161467, "ECCENTRICITY": 0.002069, "INCLINATION": 97.4112, "RA_OF_ASC_NODE": 37.8478, "ARG_OF_PERICENTER": 233.0272, "MEAN_ANOMALY": 126.9065, "EPHEMERIS_TYPE": 0, "CLASSIFICATION_TYPE": "U", "NORAD_CAT_ID": 39418, "ELEMENT_SET_NO": 999, "REV_AT_EPOCH": 66044, "BSTAR": 0.00026652257, "MEAN_MOTION_DOT": 4.486e-05, "MEAN_MOTION_DDOT": 0}, "tle": {"line1": "1 39418U 13066C   25347.66750344  .00004486  00000+0  26652-3 0  9992", "line2": "2 39418  97.4112  37.8478 0020690 233.0272 126.9065 15.11614670660445"}}, "geometry": {"type": "Point", "coordinates": [73.71189167276276, -77.28633305278548]}}, {"type": "Feature", "properties": {"norad_id": 39419, "name": "DUBAISAT-2", "group": "resource", "lat": 43.49205563945237, "lon": -28.453572398283583, "alt_km": 537.2556256524058, "timestamp": "2025-12-14T07:33:19.134922+00:00", "meta": {"OBJECT_NAME": "DUBAISAT-2", "OBJECT_ID": "2013-066D", "EPOCH": "2025-12-13T15:26:24.365184", "MEAN_MOTION": 15.08374548, "ECCENTRICITY": 0.00104958, "INCLINATION": 97.4456, "RA_OF_ASC_NODE": 338.0225, "ARG_OF_PERICENTER": 318.6543, "MEAN_ANOMALY": 41.389, "EPHEMERIS_TYPE": 0, "CLASSIFICATION_TYPE": "U", "NORAD_CAT_ID": 39419, "ELEMENT_SET_NO": 999, "REV_AT_EPOCH": 65840, "BSTAR": 0.00047709684, "MEAN_MOTION_DOT": 7.365e-05, "MEAN_MOTION_DDOT": 0}, "tle": {"line1": "1 39419U 13066D   25347.64333756  .00007365  00000+0  47710-3 0  9992", "line2": "2 39419  97.4456 338.0225 0010495 318.6543  41.3890 15.08374548658408"}}, "geometry": {"type": "Point", "coordinates": [-28.453572398283583, 43.49205563945237]}}]}